{
  "norad_id": 69098,
  "name": "2026-106B",
  "history": [
    {
      "epoch": "2026-05-15T19:54:07.899840Z",
      "apogee_km": 542.6826954040789,
      "perigee_km": 524.6387562610207,
      "latitude_deg": -2.8111471557214223e-07,
      "longitude_deg": 46.42059270823575,
      "height_km": 535.1632172830101,
      "semi_major_axis_km": 6911.797725832549,
      "eccentricity": 0.0013053,
      "inclination_deg": 97.5046,
      "raan_deg": 218.5086,
      "arg_perigee_deg": 280.0851,
      "mean_anomaly_deg": 79.8906,
      "mean_motion_rev_day": 15.10832199
    }
  ]
}