2026-106B               
1 69098U 26106B   26135.82925810  .00001026  00000+0  65499-4 0  9994
2 69098  97.5046 218.5086 0013053 280.0851  79.8906 15.10832199    21
